[
    {
        "Altitude(m)": 713184.6335264645,
        "Argument of Periapsis(deg)": 0.0022780242373254137,
        "Eccentricity": 0.0,
        "Inclination(deg)": 45.0,
        "Latitude(deg)": -33.72359736337699,
        "Longitude(deg)": 171.47005892404536,
        "Mean Anomaly(deg)": 231.3975433294962,
        "RAAN(deg)": 49.99784961170836,
        "Satellite Name": "Constellation 1 234",
        "Satellite Number": 234,
        "Semi-Major Axis(m)": 7083131.272910544,
        "Time(s)": 38
    },
    {
        "Altitude(m)": 713197.561961256,
        "Argument of Periapsis(deg)": 0.002337972243570819,
        "Eccentricity": 0.0,
        "Inclination(deg)": 45.0,
        "Latitude(deg)": -33.75573636887271,
        "Longitude(deg)": 171.52767227866212,
        "Mean Anomaly(deg)": 231.45824446974606,
        "RAAN(deg)": 49.99779302254279,
        "Satellite Name": "Constellation 1 234",
        "Satellite Number": 234,
        "Semi-Major Axis(m)": 7083131.272910544,
        "Time(s)": 39
    },
    {
        "Altitude(m)": 713210.4810513804,
        "Argument of Periapsis(deg)": 0.0023979202498162246,
        "Eccentricity": 0.0,
        "Inclination(deg)": 45.0,
        "Latitude(deg)": -33.78784426945463,
        "Longitude(deg)": 171.58533153889323,
        "Mean Anomaly(deg)": 231.51894560999597,
        "RAAN(deg)": 49.99773643337722,
        "Satellite Name": "Constellation 1 234",
        "Satellite Number": 234,
        "Semi-Major Axis(m)": 7083131.272910544,
        "Time(s)": 40
    },
    {
        "Altitude(m)": 713223.3907506805,
        "Argument of Periapsis(deg)": 0.00245786825606163,
        "Eccentricity": 0.0,
        "Inclination(deg)": 45.0,
        "Latitude(deg)": -33.819921005338905,
        "Longitude(deg)": 171.64303675037695,
        "Mean Anomaly(deg)": 231.5796467502459,
        "RAAN(deg)": 49.997679844211646,
        "Satellite Name": "Constellation 1 234",
        "Satellite Number": 234,
        "Semi-Major Axis(m)": 7083131.272910544,
        "Time(s)": 41
    },
    {
        "Altitude(m)": 713236.2910130325,
        "Argument of Periapsis(deg)": 0.002517816262307036,
        "Eccentricity": 0.0,
        "Inclination(deg)": 45.0,
        "Latitude(deg)": -33.85196651667337,
        "Longitude(deg)": 171.7007879585958,
        "Mean Anomaly(deg)": 231.64034789049578,
        "RAAN(deg)": 49.997623255046086,
        "Satellite Name": "Constellation 1 234",
        "Satellite Number": 234,
        "Semi-Major Axis(m)": 7083131.272910544,
        "Time(s)": 42
    },
    {
        "Altitude(m)": 713249.1817923408,
        "Argument of Periapsis(deg)": 0.0025777642685524413,
        "Eccentricity": 0.0,
        "Inclination(deg)": 45.0,
        "Latitude(deg)": -33.883980743538025,
        "Longitude(deg)": 171.7585852088763,
        "Mean Anomaly(deg)": 231.70104903074568,
        "RAAN(deg)": 49.99756666588051,
        "Satellite Name": "Constellation 1 234",
        "Satellite Number": 234,
        "Semi-Major Axis(m)": 7083131.272910544,
        "Time(s)": 43
    },
    {
        "Altitude(m)": 713262.0630425367,
        "Argument of Periapsis(deg)": 0.002637712274797847,
        "Eccentricity": 0.0,
        "Inclination(deg)": 45.0,
        "Latitude(deg)": -33.91596362594442,
        "Longitude(deg)": 171.81642837828977,
        "Mean Anomaly(deg)": 231.76175017099558,
        "RAAN(deg)": 49.99751007671494,
        "Satellite Name": "Constellation 1 234",
        "Satellite Number": 234,
        "Semi-Major Axis(m)": 7083131.272910544,
        "Time(s)": 44
    },
    {
        "Altitude(m)": 713274.9347175754,
        "Argument of Periapsis(deg)": 0.0026976602810432526,
        "Eccentricity": 0.0,
        "Inclination(deg)": 45.0,
        "Latitude(deg)": -33.94791510383716,
        "Longitude(deg)": 171.87431784804005,
        "Mean Anomaly(deg)": 231.82245131124552,
        "RAAN(deg)": 49.99745348754937,
        "Satellite Name": "Constellation 1 234",
        "Satellite Number": 234,
        "Semi-Major Axis(m)": 7083131.272910544,
        "Time(s)": 45
    },
    {
        "Altitude(m)": 713287.7967714494,
        "Argument of Periapsis(deg)": 0.0027576082872886585,
        "Eccentricity": 0.0,
        "Inclination(deg)": 45.0,
        "Latitude(deg)": -33.979835117092094,
        "Longitude(deg)": 171.93225349487975,
        "Mean Anomaly(deg)": 231.8831524514953,
        "RAAN(deg)": 49.9973968983838,
        "Satellite Name": "Constellation 1 234",
        "Satellite Number": 234,
        "Semi-Major Axis(m)": 7083131.272910544,
        "Time(s)": 46
    },
    {
        "Altitude(m)": 713300.6491581686,
        "Argument of Periapsis(deg)": 0.0028175562935340644,
        "Eccentricity": 0.0,
        "Inclination(deg)": 45.0,
        "Latitude(deg)": -34.01172360551789,
        "Longitude(deg)": 171.990235363498,
        "Mean Anomaly(deg)": 231.9438535917453,
        "RAAN(deg)": 49.99734030921823,
        "Satellite Name": "Constellation 1 234",
        "Satellite Number": 234,
        "Semi-Major Axis(m)": 7083131.272910544,
        "Time(s)": 47
    },
    {
        "Altitude(m)": 713313.491831777,
        "Argument of Periapsis(deg)": 0.00287750429977947,
        "Eccentricity": 0.0,
        "Inclination(deg)": 45.0,
        "Latitude(deg)": -34.04358050885562,
        "Longitude(deg)": 172.04826349842168,
        "Mean Anomaly(deg)": 232.00455473199514,
        "RAAN(deg)": 49.997283720052664,
        "Satellite Name": "Constellation 1 234",
        "Satellite Number": 234,
        "Semi-Major Axis(m)": 7083131.272910544,
        "Time(s)": 48
    },
    {
        "Altitude(m)": 713326.3247463484,
        "Argument of Periapsis(deg)": 0.002937452306024875,
        "Eccentricity": 0.0,
        "Inclination(deg)": 45.0,
        "Latitude(deg)": -34.075405766778836,
        "Longitude(deg)": 172.1063379440145,
        "Mean Anomaly(deg)": 232.0652558722451,
        "RAAN(deg)": 49.99722713088709,
        "Satellite Name": "Constellation 1 234",
        "Satellite Number": 234,
        "Semi-Major Axis(m)": 7083131.272910544,
        "Time(s)": 49
    },
    {
        "Altitude(m)": 713339.147855984,
        "Argument of Periapsis(deg)": 0.0029974003122702807,
        "Eccentricity": 0.0,
        "Inclination(deg)": 45.0,
        "Latitude(deg)": -34.10719931889382,
        "Longitude(deg)": 172.16445874447598,
        "Mean Anomaly(deg)": 232.12595701249498,
        "RAAN(deg)": 49.99717054172153,
        "Satellite Name": "Constellation 1 234",
        "Satellite Number": 234,
        "Semi-Major Axis(m)": 7083131.272910544,
        "Time(s)": 50
    },
    {
        "Altitude(m)": 713351.9611148115,
        "Argument of Periapsis(deg)": 0.0030573483185156866,
        "Eccentricity": 0.0,
        "Inclination(deg)": 45.0,
        "Latitude(deg)": -34.138961104739835,
        "Longitude(deg)": 172.22262594384046,
        "Mean Anomaly(deg)": 232.18665815274483,
        "RAAN(deg)": 49.99711395255596,
        "Satellite Name": "Constellation 1 234",
        "Satellite Number": 234,
        "Semi-Major Axis(m)": 7083131.272910544,
        "Time(s)": 51
    },
    {
        "Altitude(m)": 713364.7644769909,
        "Argument of Periapsis(deg)": 0.003117296324761092,
        "Eccentricity": 0.0,
        "Inclination(deg)": 45.0,
        "Latitude(deg)": -34.17069106378852,
        "Longitude(deg)": 172.28083941787852,
        "Mean Anomaly(deg)": 232.24735929299476,
        "RAAN(deg)": 49.99705736339039,
        "Satellite Name": "Constellation 1 234",
        "Satellite Number": 234,
        "Semi-Major Axis(m)": 7083131.272910544,
        "Time(s)": 52
    },
    {
        "Altitude(m)": 713377.5578967168,
        "Argument of Periapsis(deg)": 0.0031772443310064975,
        "Eccentricity": 0.0,
        "Inclination(deg)": 45.0,
        "Latitude(deg)": -34.20238913544572,
        "Longitude(deg)": 172.3390995464845,
        "Mean Anomaly(deg)": 232.3080604332447,
        "RAAN(deg)": 49.997000774224816,
        "Satellite Name": "Constellation 1 234",
        "Satellite Number": 234,
        "Semi-Major Axis(m)": 7083131.272910544,
        "Time(s)": 53
    },
    {
        "Altitude(m)": 713390.3413282012,
        "Argument of Periapsis(deg)": 0.0032371923372519038,
        "Eccentricity": 0.0,
        "Inclination(deg)": 45.0,
        "Latitude(deg)": -34.234055259049455,
        "Longitude(deg)": 172.397406205093,
        "Mean Anomaly(deg)": 232.36876157349457,
        "RAAN(deg)": 49.99694418505924,
        "Satellite Name": "Constellation 1 234",
        "Satellite Number": 234,
        "Semi-Major Axis(m)": 7083131.272910544,
        "Time(s)": 54
    },
    {
        "Altitude(m)": 713403.114725689,
        "Argument of Periapsis(deg)": 0.0032971403434973088,
        "Eccentricity": 0.0,
        "Inclination(deg)": 45.0,
        "Latitude(deg)": -34.265689373871396,
        "Longitude(deg)": 172.45575943706586,
        "Mean Anomaly(deg)": 232.42946271374447,
        "RAAN(deg)": 49.99688759589368,
        "Satellite Name": "Constellation 1 234",
        "Satellite Number": 234,
        "Semi-Major Axis(m)": 7083131.272910544,
        "Time(s)": 55
    },
    {
        "Altitude(m)": 713415.87804347,
        "Argument of Periapsis(deg)": 0.0033570883497427146,
        "Eccentricity": 0.0,
        "Inclination(deg)": 45.0,
        "Latitude(deg)": -34.29729141911658,
        "Longitude(deg)": 172.51415928559382,
        "Mean Anomaly(deg)": 232.49016385399437,
        "RAAN(deg)": 49.99683100672811,
        "Satellite Name": "Constellation 1 234",
        "Satellite Number": 234,
        "Semi-Major Axis(m)": 7083131.272910544,
        "Time(s)": 56
    }
]